STARLINK-5017
1 53915U 22119AF  26090.83335647  .00672221  00000+0  22010-1 0  9999
2 53915  53.2203 213.6512 0001209  78.8731 260.6943 15.28693920  5736
